[{"OBJECT_NAME":"STARLINK-34582","OBJECT_ID":"2025-147AC","EPOCH":"2026-03-09T17:57:58.023936","MEAN_MOTION":15.30200104,"ECCENTRICITY":9.203e-5,"INCLINATION":53.1591,"RA_OF_ASC_NODE":242.2635,"ARG_OF_PERICENTER":68.7864,"MEAN_ANOMALY":291.3235,"EPHEMERIS_TYPE":0,"CLASSIFICATION_TYPE":"U","NORAD_CAT_ID":64781,"ELEMENT_SET_NO":999,"REV_AT_EPOCH":3869,"BSTAR":0.00081938054,"MEAN_MOTION_DOT":0.00023987,"MEAN_MOTION_DDOT":0},{"OBJECT_NAME":"FENGYUN 1C DEB","OBJECT_ID":"1999-025DFY","EPOCH":"2026-03-03T06:55:21.899424","MEAN_MOTION":15.25006274,"ECCENTRICITY":0.01038057,"INCLINATION":98.9901,"RA_OF_ASC_NODE":88.6648,"ARG_OF_PERICENTER":65.5781,"MEAN_ANOMALY":295.624,"EPHEMERIS_TYPE":0,"CLASSIFICATION_TYPE":"U","NORAD_CAT_ID":33687,"ELEMENT_SET_NO":999,"REV_AT_EPOCH":72733,"BSTAR":0.001670914,"MEAN_MOTION_DOT":0.00048845,"MEAN_MOTION_DDOT":0}]
